GLOBALSTAR M045         
1 25676U 99019A   24197.19684376 -.00000060  00000+0  29848-3 0  9991
2 25676  51.9939 185.7469 0000578 292.8963 148.5358 12.27041268152266
GLOBALSTAR M019         
1 25677U 99019B   24196.67888336  .00000034  00000+0  12914-2 0  9991
2 25677  51.9890 293.8450 0000697  41.9805 106.5584 12.13859851144158
GLOBALSTAR M044         
1 25678U 99019C   24196.78068509 -.00000056  00000+0  38837-3 0  9994
2 25678  51.9932 202.7100 0006266 109.2989  62.1040 11.90235063131142
GLOBALSTAR M042         
1 25679U 99019D   24196.61757812 -.00000080  00000+0  11644-3 0  9993
2 25679  52.0020 283.9103 0002372 323.5576 184.2111 12.22064930143983
GLOBALSTAR M025         
1 25770U 99031A   24196.85119656 -.00000062  00000+0  16644-3 0  9998
2 25770  51.9776 220.7328 0001653 292.8138 238.7554 11.22551194443826
GLOBALSTAR M049         
1 25771U 99031B   24196.84198554 -.00000022  00000+0  15032-2 0  9997
2 25771  51.9842 238.5644 0003084 172.3343 187.7501 11.12106507 79899
GLOBALSTAR M047         
1 25772U 99031C   24196.72507936 -.00000061  00000+0  22793-3 0  9999
2 25772  51.9826 268.0406 0016034  44.5093 315.6998 11.31921135432895
GLOBALSTAR M052         
1 25773U 99031D   24196.82746897 -.00000027  00000+0  12981-2 0  9991
2 25773  51.9896 352.0159 0002128 348.4815 160.1816 11.15051840440877
